{
  "norad_id": 68129,
  "name": "GUOWANG GROUP 20 OBJECT A",
  "history": [
    {
      "epoch": "2026-03-27T14:49:26.211072",
      "apogee_km": 910.7325545790736,
      "perigee_km": 908.7998026561045,
      "latitude_deg": 49.837333380267516,
      "longitude_deg": -123.80420992011204,
      "semi_major_axis_km": 7287.903178617589,
      "eccentricity": 0.0001326,
      "inclination_deg": 50.0073,
      "raan_deg": 357.5704,
      "arg_perigee_deg": 229.8596,
      "mean_anomaly_deg": 130.2189,
      "mean_motion_rev_day": 13.95400488
    }
  ]
}